MEAN_MOTION;ECCENTRICITY;INCLINATION;RA_OF_ASC_NODE;ARG_OF_PERICENTER;MEAN_ANOMALY;BSTAR;MEAN_MOTION_DOT;MEAN_MOTION_DDOT;TYPE
1.00270409;0.0002637;0.0197;202.1229;150.875;98.5194;0;-2.16E-6;0;Intelsat
1.00270298;0.0002647;0.019;200.0819;153.714;221.6613;0;-2.18E-6;0;Intelsat
1.00274598;0.0002578;0.0185;196.475;151.1497;101.0886;0;-2.19E-6;0;Intelsat
1.00274435;0.0002568;0.0185;196.4052;150.4001;127.8148;0;-2.19E-6;0;Intelsat
1.00273027;0.0002681;0.0171;192.9411;155.2899;51.4518;0;-2.23E-6;0;Intelsat
1.00272499;0.0002723;0.0201;203.2694;144.6709;103.5816;0;-2.23E-6;0;Intelsat
1.00272673;0.0002692;0.0193;200.3161;149.7668;308.7279;0;-2.24E-6;0;Intelsat
1.00272514;0.0002696;0.0187;197.6431;153.6355;103.0306;0;-2.26E-6;0;Intelsat
1.00272324;0.0002699;0.0207;207.1922;145.8397;308.6088;0;-2.27E-6;0;Intelsat
1.00271854;0.0002665;0.0226;213.6768;142.7032;308.0615;0;-2.28E-6;0;Intelsat
1.00271815;0.000267;0.0218;211.3801;146.731;101.8028;0;-2.28E-6;0;Intelsat
1.0027166;0.0002666;0.0201;207.1488;153.8931;49.8694;0;-2.28E-6;0;Intelsat
1.00271659;0.0002672;0.0201;206.6172;155.0027;101.1254;0;-2.28E-6;0;Intelsat
1.00271576;0.000266;0.0188;202.1747;162.6548;74.8017;0;-2.27E-6;0;Intelsat
1.00271574;0.0002662;0.0188;202.0903;163.0633;100.3946;0;-2.27E-6;0;Intelsat
1.00271972;0.0002621;0.0201;209.0249;159.2156;74.199;0;-2.26E-6;0;Intelsat
1.00271861;0.0002623;0.0201;208.9366;159.5106;99.8851;0;-2.25E-6;0;Intelsat
1.00271317;0.0002648;0.0194;204.2883;167.7303;73.2114;0;-2.25E-6;0;Intelsat
1.00270977;0.0002634;0.0213;211.6418;162.2805;74.0954;0;-2.24E-6;0;Intelsat
1.00270981;0.0002633;0.0215;211.6485;162.6545;99.6314;0;-2.24E-6;0;Intelsat
1.00270803;0.0002627;0.0224;218.8367;158.4743;89.0693;0;-2.23E-6;0;Intelsat
1.00270834;0.0002612;0.0215;216.847;160.4484;294.4222;0;-2.22E-6;0;Intelsat
1.00270744;0.0002592;0.0208;214.8893;163.0963;101.5656;0;-2.22E-6;0;Intelsat
1.00270769;0.000258;0.0205;212.7099;165.8854;197.3399;0;-2.22E-6;0;Intelsat
1.0027072;0.0002585;0.0201;212.7923;166.1699;281.9749;0;-2.22E-6;0;Intelsat
1.002706;0.0002591;0.0194;210.6948;171.1058;97.0206;0;-2.21E-6;0;Intelsat
1.0027056;0.0002583;0.0188;209.2288;173.4533;201.5029;0;-2.21E-6;0;Intelsat
1.00270494;0.000259;0.0187;208.3758;175.0662;307.3526;0;-2.21E-6;0;Intelsat
1.00270435;0.0002582;0.0183;206.2608;177.7983;101.0473;0;-2.2E-6;0;Intelsat
1.00277655;0.0002473;0.0179;204.2597;171.0229;291.2076;0;-2.19E-6;0;Intelsat
1.0027578;0.0002308;0.0173;203.0523;172.8713;111.9774;0;-2.18E-6;0;Intelsat
1.00274511;0.0002359;0.0169;201.3045;170.4528;209.6507;0;-2.18E-6;0;Intelsat
1.00272246;0.000249;0.0188;209.6332;164.7099;96.4891;0;-2.17E-6;0;Intelsat
1.00273929;0.0002371;0.0182;207.9851;165.5023;211.6708;0;-2.17E-6;0;Intelsat
1.00273753;0.0002365;0.0178;205.9027;166.5299;43.3629;0;-2.15E-6;0;Intelsat
1.00273546;0.0002364;0.02;214.4181;159.0523;301.4705;0;-2.14E-6;0;Intelsat
1.00274403;0.0002289;0.0226;222.6024;151.2751;108.8776;0;-2.12E-6;0;Intelsat
1.00273309;0.000236;0.0218;221.1699;153.5317;303.0265;0;-2.12E-6;0;Intelsat
1.00273123;0.0002356;0.021;219.6672;154.867;98.7165;0;-2.1E-6;0;Intelsat
1.00272844;0.0002342;0.0197;217.1058;158.987;48.131;0;-2.08E-6;0;Intelsat
1.00272815;0.0002344;0.0196;216.7748;159.4116;99.8718;0;-2.08E-6;0;Intelsat
1.00272648;0.0002345;0.0189;215.1997;160.3697;307.7954;0;-2.07E-6;0;Intelsat
1.00272529;0.0002342;0.0184;213.0296;163.4563;76.4332;0;-2.06E-6;0;Intelsat
1.00272314;0.0002354;0.0176;212.5221;164.1206;310.9834;0;-2.05E-6;0;Intelsat
1.00268992;0.0002563;0.0222;226.2414;152.4323;83.349;0;-2.04E-6;0;Intelsat
1.00269938;0.0002503;0.0221;226.1507;152.8052;105.5024;0;-2.04E-6;0;Intelsat
1.00271612;0.0002398;0.0213;225.887;152.0701;220.0845;0;-2.04E-6;0;Intelsat
1.00271377;0.0002387;0.0245;231.5641;145.7659;109.9284;0;-2.04E-6;0;Intelsat
1.00271019;0.0002428;0.0235;231.1271;146.4833;226.6795;0;-2.05E-6;0;Intelsat
1.00270665;0.000244;0.0225;229.424;149.4401;111.1882;0;-2.06E-6;0;Intelsat
1.00270558;0.0002463;0.0216;228.3797;151.2648;230.2245;0;-2.07E-6;0;Intelsat
1.00270352;0.0002476;0.0208;226.494;153.924;60.5949;0;-2.08E-6;0;Intelsat
1.00270164;0.0002508;0.02;224.1562;157.333;266.8413;0;-2.1E-6;0;Intelsat
1.00269971;0.0002525;0.0192;222.1713;160.0762;103.5535;0;-2.12E-6;0;Intelsat
1.00269796;0.0002559;0.0184;220.0975;163.5805;290.7896;0;-2.14E-6;0;Intelsat
1.00269637;0.000258;0.0178;217.9505;166.4684;107.4651;0;-2.15E-6;0;Intelsat
1.00277262;0.0002597;0.0172;216.399;158.6542;227.6431;0;-2.15E-6;0;Intelsat
1.00274905;0.0002448;0.017;213.6436;162.9007;96.1717;0;-2.18E-6;0;Intelsat
1.00272244;0.0002549;0.0164;212.041;161.9366;220.9964;0;-2.19E-6;0;Intelsat
1.00272669;0.00026;0.0181;218.5314;156.8249;128.7068;0;-2.21E-6;0;Intelsat
1.00272493;0.000261;0.0176;217.4884;158.855;224.1349;0;-2.22E-6;0;Intelsat
1.00272473;0.0002613;0.0176;217.1241;159.6816;302.1356;0;-2.22E-6;0;Intelsat
1.00272164;0.000264;0.0193;222.8334;157.4581;299.136;0;-2.23E-6;0;Intelsat
1.00271731;0.0002684;0.0202;226.7941;157.9317;101.8157;0;-2.23E-6;0;Intelsat
1.00271641;0.0002695;0.0188;224.5293;163.1542;49.7045;0;-2.23E-6;0;Intelsat
1.00271557;0.000272;0.0176;219.7601;171.419;75.0576;0;-2.22E-6;0;Intelsat
1.00271553;0.0002724;0.0176;219.688;171.756;100.7096;0;-2.21E-6;0;Intelsat
1.00271414;0.0002856;0.0191;226.5198;166.7761;75.7403;0;-2.2E-6;0;Intelsat
1.00277866;0.0002644;0.0191;226.4833;161.787;106.6863;0;-2.19E-6;0;Intelsat
1.00271387;0.000275;0.0209;230.8844;167.1219;95.3734;0;-2.19E-6;0;Intelsat
1.0027102;0.0002789;0.0229;236.1482;164.7331;99.3138;0;-2.18E-6;0;Intelsat
1.00270989;0.0002794;0.0224;236.0978;165.6689;192.0488;0;-2.18E-6;0;Intelsat
1.00270979;0.000279;0.022;235.6281;166.3852;305.8522;0;-2.18E-6;0;Intelsat
1.0027095;0.0002791;0.0214;234.6318;169.0529;101.569;0;-2.17E-6;0;Intelsat
1.00270919;0.000279;0.0208;233.8086;170.6022;202.5935;0;-2.17E-6;0;Intelsat
1.00270893;0.0002789;0.0207;233.3393;171.3424;280.0729;0;-2.17E-6;0;Intelsat
1.00270852;0.0002783;0.0199;231.8728;174.1105;103.1442;0;-2.17E-6;0;Intelsat
1.0027081;0.0002781;0.0194;230.4347;176.4731;215.2686;0;-2.16E-6;0;Intelsat
1.00270776;0.0002782;0.0193;230.1422;176.9172;281.4252;0;-2.16E-6;0;Intelsat
1.00270713;0.0002773;0.0187;228.441;179.6652;100.8376;0;-2.16E-6;0;Intelsat
1.00270629;0.0002767;0.0181;226.6452;182.4484;281.2552;0;-2.15E-6;0;Intelsat
1.00270543;0.0002751;0.0175;224.706;185.2101;110.914;0;-2.14E-6;0;Intelsat
1.00273255;0.0002302;0.0166;219.7323;178.808;90.1081;0;-2.12E-6;0;Intelsat
1.00272787;0.000231;0.0167;219.8464;177.4463;106.909;0;-2.12E-6;0;Intelsat
1.00271158;0.0002423;0.0161;217.5558;176.5646;301.8344;0;-2.12E-6;0;Intelsat
1.00271091;0.0002414;0.0162;216.0922;178.1901;90.986;0;-2.11E-6;0;Intelsat
1.0027184;0.0002381;0.0173;224.5751;169.6053;304.5974;0;-2.09E-6;0;Intelsat
1.00271637;0.0002358;0.0169;222.7848;171.8634;99.5962;0;-2.08E-6;0;Intelsat
1.00272619;0.0002341;0.019;230.9307;163.174;307.4731;0;-2.07E-6;0;Intelsat
1.00272156;0.0002311;0.0185;229.549;163.7419;103.7217;0;-2.05E-6;0;Intelsat
1.00272693;0.0002248;0.021;236.5314;156.6596;311.0317;0;-2.04E-6;0;Intelsat
1.00272691;0.000224;0.0203;235.3925;158.3242;132.0187;0;-2.03E-6;0;Intelsat
1.00272519;0.0002216;0.0195;234.2951;160.1968;312.6325;0;-2.01E-6;0;Intelsat
1.00272434;0.000221;0.019;233.3613;161.43;56.0052;0;-2.01E-6;0;Intelsat
1.00272372;0.0002207;0.0188;233.0354;161.8337;133.6473;0;-2.0E-6;0;Intelsat
1.00272205;0.0002192;0.0183;232.3532;162.6046;314.9781;0;-1.99E-6;0;Intelsat
1.00272087;0.0002185;0.0179;231.1667;164.4552;83.8765;0;-1.99E-6;0;Intelsat
1.00272068;0.0002185;0.0178;231.117;164.526;109.7725;0;-1.99E-6;0;Intelsat
1.00271902;0.0002179;0.0173;229.6672;166.1798;290.9722;0;-1.98E-6;0;Intelsat
1.00271798;0.0002169;0.0169;228.6639;167.4867;34.3148;0;-1.98E-6;0;Intelsat
1.00272932;0.0002169;0.0189;236.0389;158.099;226.4864;0;-1.97E-6;0;Intelsat
1.00272269;0.0002141;0.0182;234.2205;161.2221;115.5748;0;-1.97E-6;0;Intelsat
1.00272704;0.0002111;0.0204;239.6305;154.8329;323.8649;0;-1.98E-6;0;Intelsat
1.00272673;0.0002105;0.02;238.3203;156.8903;92.7039;0;-1.98E-6;0;Intelsat
1.00273221;0.0002107;0.0226;243.4983;151.1812;326.4602;0;-1.99E-6;0;Intelsat
1.00273132;0.0002101;0.022;242.4344;153.0431;95.2182;0;-2.0E-6;0;Intelsat
1.00272865;0.0002124;0.0209;240.9087;155.0183;328.0143;0;-2.02E-6;0;Intelsat
1.00272571;0.0002151;0.0196;237.7612;159.525;294.5406;0;-2.04E-6;0;Intelsat
1.00272334;0.0002173;0.0187;235.1428;163.5434;210.1497;0;-2.07E-6;0;Intelsat
1.00272091;0.0002198;0.0182;232.105;168.2437;105.7934;0;-2.1E-6;0;Intelsat
1.00272002;0.0002214;0.0178;230.0879;171.5131;227.0955;0;-2.11E-6;0;Intelsat
1.00271925;0.0002223;0.0177;229.6385;172.6829;304.126;0;-2.11E-6;0;Intelsat
1.00271812;0.0002234;0.0176;227.0913;176.3099;72.6248;0;-2.12E-6;0;Intelsat
1.00269285;0.0002251;0.0172;226.3232;171.7037;173.4179;0;-2.14E-6;0;Intelsat
1.00270203;0.0002509;0.0174;224.1242;173.6199;285.5778;0;-2.14E-6;0;Intelsat
1.00269747;0.0002527;0.0173;221.1935;176.1905;107.3165;0;-2.15E-6;0;Intelsat
1.00272005;0.0002597;0.0183;230.9519;167.0295;232.8252;0;-2.16E-6;0;Intelsat
1.00270134;0.0002532;0.018;228.3715;171.2089;82.0101;0;-2.16E-6;0;Intelsat
1.00270197;0.0002542;0.018;228.3188;171.4582;107.7303;0;-2.16E-6;0;Intelsat
1.00271919;0.0002561;0.0197;236.4037;164.2588;239.1725;0;-2.16E-6;0;Intelsat
1.0027088;0.0002531;0.0193;234.5591;168.7118;107.0424;0;-2.16E-6;0;Intelsat
1.00271818;0.0002531;0.0212;240.8224;163.6182;313.0688;0;-2.16E-6;0;Intelsat
1.00271452;0.0002541;0.0207;239.6278;165.4033;108.0642;0;-2.16E-6;0;Intelsat
1.00271377;0.0002542;0.0196;237.5103;170.7822;29.8616;0;-2.15E-6;0;Intelsat
1.00271387;0.0002562;0.0195;236.9414;172.0846;106.8736;0;-2.15E-6;0;Intelsat
1.0027131;0.0002582;0.0188;233.9485;177.976;80.853;0;-2.14E-6;0;Intelsat
1.00271236;0.0002608;0.0186;230.666;184.6636;80.272;0;-2.13E-6;0;Intelsat
1.00273531;0.000263;0.0198;238.282;175.8122;211.0622;0;-2.12E-6;0;Intelsat
1.00272075;0.0002587;0.0197;235.7888;182.043;80.5464;0;-2.12E-6;0;Intelsat
1.00272399;0.0002516;0.0215;242.035;176.525;313.044;0;-2.12E-6;0;Intelsat
